GRBBETA                 
1 60237U 24128C   24208.89654887  .00004956  00000+0  44477-3 0  9998
2 60237  61.9945 102.6597 0010508 292.3802  67.6172 14.96987580  2541
OOV-CUBE                
1 60240U 24128F   24208.90277101  .00003483  00000+0  32237-3 0  9999
2 60240  61.9980 102.6993 0010204 275.1811  84.8113 14.96412160  2550
ROBUSTA-3A (MEDITERRAN*)
1 60243U 24128J   24208.90974675  .00007367  00000+0  67092-3 0  9994
2 60243  61.9920 102.7125 0012737 264.2166  95.7470 14.95878855  2553
